{
  "type": "FeatureCollection",
  "features": [
    {
      "type": "Feature",
      "properties": {
        "norad_id": 36710,
        "name": "FENGYUN 1C DEB",
        "group": "fengyun-1c-debris",
        "lat": -53.894795492656264,
        "lon": 50.28950485531214,
        "alt_km": 747.8972431555603,
        "timestamp": "2025-12-07T11:27:50.291113+00:00",
        "meta_object_name": "FENGYUN 1C DEB",
        "meta_object_id": "1999-025EAG",
        "meta_epoch": "2025-12-05T10:01:29.869248",
        "meta_mean_motion": 14.49716065,
        "meta_eccentricity": 0.00677637,
        "meta_inclination": 98.3798,
        "meta_ra_of_asc_node": 36.582,
        "meta_arg_of_pericenter": 203.7095,
        "meta_mean_anomaly": 156.0972,
        "meta_ephemeris_type": 0,
        "meta_classification_type": "U",
        "meta_norad_cat_id": 36710,
        "meta_element_set_no": 999,
        "meta_rev_at_epoch": 64847,
        "meta_bstar": 0.0030503061,
        "meta_mean_motion_dot": 0.00012064,
        "meta_mean_motion_ddot": 0,
        "tle_line1": "1 36710U 99025EAG 25339.41770682  .00012064  00000+0  30503-2 0  9994",
        "tle_line2": "2 36710  98.3798  36.5820 0067763 203.7095 156.0972 14.49716065648474"
      },
      "geometry": {
        "type": "Point",
        "coordinates": [
          50.28950485531214,
          -53.894795492656264
        ]
      }
    },
    {
      "type": "Feature",
      "properties": {
        "norad_id": 36711,
        "name": "FENGYUN 1C DEB",
        "group": "fengyun-1c-debris",
        "lat": -39.11812271707454,
        "lon": 8.313554425487744,
        "alt_km": 765.9898839086773,
        "timestamp": "2025-12-07T11:27:50.291124+00:00",
        "meta_object_name": "FENGYUN 1C DEB",
        "meta_object_id": "1999-025EAH",
        "meta_epoch": "2025-11-29T18:49:32.545344",
        "meta_mean_motion": 14.42080972,
        "meta_eccentricity": 0.01000486,
        "meta_inclination": 100.8061,
        "meta_ra_of_asc_node": 349.6584,
        "meta_arg_of_pericenter": 244.1532,
        "meta_mean_anomaly": 114.9305,
        "meta_ephemeris_type": 0,
        "meta_classification_type": "U",
        "meta_norad_cat_id": 36711,
        "meta_element_set_no": 999,
        "meta_rev_at_epoch": 64124,
        "meta_bstar": 0.0024295961,
        "meta_mean_motion_dot": 8.419e-05,
        "meta_mean_motion_ddot": 0,
        "tle_line1": "1 36711U 99025EAH 25333.78440446  .00008419  00000+0  24296-2 0  9992",
        "tle_line2": "2 36711 100.8061 349.6584 0100048 244.1532 114.9305 14.42080972641246"
      },
      "geometry": {
        "type": "Point",
        "coordinates": [
          8.313554425487744,
          -39.11812271707454
        ]
      }
    },
    {
      "type": "Feature",
      "properties": {
        "norad_id": 36716,
        "name": "FENGYUN 1C DEB",
        "group": "fengyun-1c-debris",
        "lat": -54.92972137676366,
        "lon": -86.03085717105586,
        "alt_km": 887.3503992978931,
        "timestamp": "2025-12-07T11:27:50.291134+00:00",
        "meta_object_name": "FENGYUN 1C DEB",
        "meta_object_id": "1999-025EAN",
        "meta_epoch": "2025-12-06T01:08:32.167392",
        "meta_mean_motion": 13.88407535,
        "meta_eccentricity": 0.01480321,
        "meta_inclination": 99.2277,
        "meta_ra_of_asc_node": 259.1657,
        "meta_arg_of_pericenter": 246.9764,
        "meta_mean_anomaly": 111.5723,
        "meta_ephemeris_type": 0,
        "meta_classification_type": "U",
        "meta_norad_cat_id": 36716,
        "meta_element_set_no": 999,
        "meta_rev_at_epoch": 62838,
        "meta_bstar": 0.000413357,
        "meta_mean_motion_dot": 4.96e-06,
        "meta_mean_motion_ddot": 0,
        "tle_line1": "1 36716U 99025EAN 25340.04759453  .00000496  00000+0  41336-3 0  9997",
        "tle_line2": "2 36716  99.2277 259.1657 0148032 246.9764 111.5723 13.88407535628383"
      },
      "geometry": {
        "type": "Point",
        "coordinates": [
          -86.03085717105586,
          -54.92972137676366
        ]
      }
    },
    {
      "type": "Feature",
      "properties": {
        "norad_id": 36724,
        "name": "FENGYUN 1C DEB",
        "group": "fengyun-1c-debris",
        "lat": -12.700657152872404,
        "lon": -169.3558617315968,
        "alt_km": 741.9657902847175,
        "timestamp": "2025-12-07T11:27:50.291144+00:00",
        "meta_object_name": "FENGYUN 1C DEB",
        "meta_object_id": "1999-025EAW",
        "meta_epoch": "2025-12-06T13:23:30.710112",
        "meta_mean_motion": 14.25199778,
        "meta_eccentricity": 0.01036211,
        "meta_inclination": 99.4685,
        "meta_ra_of_asc_node": 11.8078,
        "meta_arg_of_pericenter": 215.0566,
        "meta_mean_anomaly": 302.1136,
        "meta_ephemeris_type": 0,
        "meta_classification_type": "U",
        "meta_norad_cat_id": 36724,
        "meta_element_set_no": 999,
        "meta_rev_at_epoch": 57384,
        "meta_bstar": 0.0032083162,
        "meta_mean_motion_dot": 7.931e-05,
        "meta_mean_motion_ddot": 0,
        "tle_line1": "1 36724U 99025EAW 25340.55799433  .00007931  00000+0  32083-2 0  9993",
        "tle_line2": "2 36724  99.4685  11.8078 0103621 215.0566 302.1136 14.25199778573844"
      },
      "geometry": {
        "type": "Point",
        "coordinates": [
          -169.3558617315968,
          -12.700657152872404
        ]
      }
    },
    {
      "type": "Feature",
      "properties": {
        "norad_id": 36729,
        "name": "FENGYUN 1C DEB",
        "group": "fengyun-1c-debris",
        "lat": 9.906489766967686,
        "lon": 144.98153157244994,
        "alt_km": 866.3464798852438,
        "timestamp": "2025-12-07T11:27:50.291154+00:00",
        "meta_object_name": "FENGYUN 1C DEB",
        "meta_object_id": "1999-025EBB",
        "meta_epoch": "2025-12-05T16:05:18.853440",
        "meta_mean_motion": 14.10305503,
        "meta_eccentricity": 0.0045345,
        "meta_inclination": 98.7068,
        "meta_ra_of_asc_node": 321.6982,
        "meta_arg_of_pericenter": 276.6749,
        "meta_mean_anomaly": 82.9262,
        "meta_ephemeris_type": 0,
        "meta_classification_type": "U",
        "meta_norad_cat_id": 36729,
        "meta_element_set_no": 999,
        "meta_rev_at_epoch": 87152,
        "meta_bstar": 0.00051397144,
        "meta_mean_motion_dot": 8.78e-06,
        "meta_mean_motion_ddot": 0,
        "tle_line1": "1 36729U 99025EBB 25339.67035710  .00000878  00000+0  51397-3 0  9993",
        "tle_line2": "2 36729  98.7068 321.6982 0045345 276.6749  82.9262 14.10305503871524"
      },
      "geometry": {
        "type": "Point",
        "coordinates": [
          144.98153157244994,
          9.906489766967686
        ]
      }
    },
    {
      "type": "Feature",
      "properties": {
        "norad_id": 36734,
        "name": "FENGYUN 1C DEB",
        "group": "fengyun-1c-debris",
        "lat": -2.9060837260248586,
        "lon": 28.6646480921942,
        "alt_km": 823.157815743969,
        "timestamp": "2025-12-07T11:27:50.291164+00:00",
        "meta_object_name": "FENGYUN 1C DEB",
        "meta_object_id": "1999-025EBG",
        "meta_epoch": "2025-12-06T01:47:35.625696",
        "meta_mean_motion": 14.25778365,
        "meta_eccentricity": 0.00357798,
        "meta_inclination": 99.0548,
        "meta_ra_of_asc_node": 26.7523,
        "meta_arg_of_pericenter": 237.8747,
        "meta_mean_anomaly": 121.8957,
        "meta_ephemeris_type": 0,
        "meta_classification_type": "U",
        "meta_norad_cat_id": 36734,
        "meta_element_set_no": 999,
        "meta_rev_at_epoch": 82639,
        "meta_bstar": 0.0027996268,
        "meta_mean_motion_dot": 6.655e-05,
        "meta_mean_motion_ddot": 0,
        "tle_line1": "1 36734U 99025EBG 25340.07471789  .00006655  00000+0  27996-2 0  9991",
        "tle_line2": "2 36734  99.0548  26.7523 0035779 237.8747 121.8957 14.25778365826393"
      },
      "geometry": {
        "type": "Point",
        "coordinates": [
          28.6646480921942,
          -2.9060837260248586
        ]
      }
    },
    {
      "type": "Feature",
      "properties": {
        "norad_id": 36736,
        "name": "FENGYUN 1C DEB",
        "group": "fengyun-1c-debris",
        "lat": 74.54965038425033,
        "lon": -90.96386790269244,
        "alt_km": 772.7720208654282,
        "timestamp": "2025-12-07T11:27:50.291174+00:00",
        "meta_object_name": "FENGYUN 1C DEB",
        "meta_object_id": "1999-025EBJ",
        "meta_epoch": "2025-12-06T11:23:48.691968",
        "meta_mean_motion": 14.25393526,
        "meta_eccentricity": 0.00614224,
        "meta_inclination": 98.8068,
        "meta_ra_of_asc_node": 53.9112,
        "meta_arg_of_pericenter": 157.8344,
        "meta_mean_anomaly": 202.5511,
        "meta_ephemeris_type": 0,
        "meta_classification_type": "U",
        "meta_norad_cat_id": 36736,
        "meta_element_set_no": 999,
        "meta_rev_at_epoch": 88526,
        "meta_bstar": 0.0031425754,
        "meta_mean_motion_dot": 7.522e-05,
        "meta_mean_motion_ddot": 0,
        "tle_line1": "1 36736U 99025EBJ 25340.47486912  .00007522  00000+0  31426-2 0  9998",
        "tle_line2": "2 36736  98.8068  53.9112 0061422 157.8344 202.5511 14.25393526885269"
      },
      "geometry": {
        "type": "Point",
        "coordinates": [
          -90.96386790269244,
          74.54965038425033
        ]
      }
    }
  ]
}